[{"OBJECT_NAME":"CUTE-1 (CO-55)","OBJECT_ID":"2003-031E","EPOCH":"2026-03-09T23:38:51.813024","MEAN_MOTION":14.24266468,"ECCENTRICITY":0.00106777,"INCLINATION":98.6777,"RA_OF_ASC_NODE":78.7801,"ARG_OF_PERICENTER":111.7093,"MEAN_ANOMALY":248.5223,"EPHEMERIS_TYPE":0,"CLASSIFICATION_TYPE":"U","NORAD_CAT_ID":27844,"ELEMENT_SET_NO":999,"REV_AT_EPOCH":17755,"BSTAR":0.00020468113,"MEAN_MOTION_DOT":4.29e-6,"MEAN_MOTION_DDOT":0},{"OBJECT_NAME":"METEOR 2-8 DEB","OBJECT_ID":"1982-025Q","EPOCH":"2026-03-09T22:12:16.157664","MEAN_MOTION":14.31820177,"ECCENTRICITY":0.00255378,"INCLINATION":82.5296,"RA_OF_ASC_NODE":278.1582,"ARG_OF_PERICENTER":245.163,"MEAN_ANOMALY":114.69,"EPHEMERIS_TYPE":0,"CLASSIFICATION_TYPE":"U","NORAD_CAT_ID":36330,"ELEMENT_SET_NO":999,"REV_AT_EPOCH":69979,"BSTAR":0.0016993778,"MEAN_MOTION_DOT":4.575e-5,"MEAN_MOTION_DDOT":0}]
